[{"OBJECT_NAME":"CONTINUUM-1","OBJECT_ID":"2023-001AN","EPOCH":"2026-03-09T23:17:35.458656","MEAN_MOTION":15.27981258,"ECCENTRICITY":0.00109493,"INCLINATION":97.3456,"RA_OF_ASC_NODE":133.3964,"ARG_OF_PERICENTER":60.1976,"MEAN_ANOMALY":300.0351,"EPHEMERIS_TYPE":0,"CLASSIFICATION_TYPE":"U","NORAD_CAT_ID":55045,"ELEMENT_SET_NO":999,"REV_AT_EPOCH":17709,"BSTAR":0.00052859897,"MEAN_MOTION_DOT":0.00014395,"MEAN_MOTION_DDOT":0},{"OBJECT_NAME":"STARLINK-30495","OBJECT_ID":"2023-151E","EPOCH":"2026-03-09T03:34:02.021664","MEAN_MOTION":15.26761318,"ECCENTRICITY":0.00013376,"INCLINATION":43.0042,"RA_OF_ASC_NODE":339.0612,"ARG_OF_PERICENTER":263.7152,"MEAN_ANOMALY":96.3547,"EPHEMERIS_TYPE":0,"CLASSIFICATION_TYPE":"U","NORAD_CAT_ID":57968,"ELEMENT_SET_NO":999,"REV_AT_EPOCH":13568,"BSTAR":5.7760532e-5,"MEAN_MOTION_DOT":1.291e-5,"MEAN_MOTION_DDOT":0}]
